LEMUR-2-HUBBLE-4        
1 64565U 25135AP  26198.28485914  .00000584  00000+0  60593-4 0  9992
2 64565  97.7721 311.8429 0002831 156.8302 203.3046 14.93689200 58360
LEMUR-2-SEJONG-2        
1 64586U 25135BL  26198.25364378  .00002232  00000+0  19949-3 0  9992
2 64586  97.7709 313.0761 0004097 208.9023 151.1973 14.96921078 58440
LEMUR-2-HUBBLE-5        
1 64840U 25135BT  26198.29295689  .00000407  00000+0  43281-4 0  9996
2 64840  97.7741 312.5223 0004455 226.7198 133.3651 14.94216448 58402
LEMUR-2-KARENDARRELL    
1 64841U 25135BU  26197.86360033  .00004093  00000+0  32901-3 0  9996
2 64841  97.7721 314.0339 0012626  99.6140 260.6511 15.00513466 58462
LEMUR-2-LUCILLE-ROSE    
1 65403U 25135BV  26198.30386946  .00003258  00000+0  26282-3 0  9999
2 65403  97.7708 314.5090 0015138 182.7111 177.4033 15.00502928 53150
LEMUR-2-AFFIE-WAUWIE    
1 66295U 25248C   26198.33032589  .00012925  00000+0  46965-3 0  9999
2 66295  45.3906 311.5300 0008947 263.2179  96.7692 15.28312820 39203
OTTER SDM               
1 66678U 25276N   26198.20386588  .00003200  00000+0  15141-3 0  9990
2 66678  97.4200 271.1864 0004402 244.4412 115.6368 15.20069960 34978
LEMUR-2-STAS-GORBUK     
1 66686U 25276W   26197.96244112  .00002941  00000+0  14105-3 0  9997
2 66686  97.4236 271.0004 0003698 239.2654 120.8217 15.19669071 34931
LEMUR-2-TEODOR          
1 66768U 25276DG  26197.71617626  .00002974  00000+0  13585-3 0  9992
2 66768  97.4142 271.0320 0002199  87.3498 272.7990 15.21346633 34936
LEMUR-2-LAILA           
1 66776U 25276DQ  26198.14609617  .00003133  00000+0  14200-3 0  9993
2 66776  97.4163 271.5951 0002912  91.7042 268.4528 15.21575778 35002
LEMUR-2-CELIJO-SB-PK    
1 66781U 25276DW  26197.71887849  .00003306  00000+0  26832-3 0  9992
2 66781  97.5191 267.5216 0006895  60.6403 299.5509 15.00294496 27051
LEMUR-2-FINNIAN         
1 66782U 25276DX  26197.75549820  .00001438  00000+0  11832-3 0  9999
2 66782  97.5358 267.8266 0007215 354.7845   5.3303 15.00627545 24438
LEMUR-2-STARLIGHT       
1 66783U 25276DY  26198.00435941  .00003825  00000+0  31670-3 0  9991
2 66783  97.5234 267.6244 0014753  41.8788 318.3562 14.99368921 34668
LEMUR-2-TARTIFLETTE     
1 66784U 25276DZ  26197.73583064  .00003442  00000+0  28561-3 0  9991
2 66784  97.5233 267.3730 0013920  51.1069 309.1394 14.99350642 34624
LEMUR-2-VUKASIN         
1 66785U 25276EA  26198.17173855  .00002310  00000+0  18760-3 0  9997
2 66785  97.5216 268.1562 0002730  48.5948 311.5510 15.00556240 34645
LEMUR-2-HOTSPUR-TOM     
1 66786U 25276EB  26198.13078395  .00002945  00000+0  24574-3 0  9991
2 66786  97.5214 267.7279 0013720  41.5297 318.6966 14.99252822 34611
